{
  "type": "FeatureCollection",
  "features": [
    {
      "type": "Feature",
      "properties": {
        "norad_id": 40230,
        "name": "COSMOS 2251 DEB",
        "group": "cosmos-2251-debris",
        "lat": -11.512128340940675,
        "lon": -119.04186769375129,
        "alt_km": 722.5710695340676,
        "timestamp": "2025-12-03T10:52:57.854870+00:00",
        "meta_object_name": "COSMOS 2251 DEB",
        "meta_object_id": "1993-036BVK",
        "meta_epoch": "2025-12-01T11:25:53.279904",
        "meta_mean_motion": 14.49219846,
        "meta_eccentricity": 0.00191733,
        "meta_inclination": 74.0459,
        "meta_ra_of_asc_node": 248.0026,
        "meta_arg_of_pericenter": 306.9288,
        "meta_mean_anomaly": 170.1054,
        "meta_ephemeris_type": 0,
        "meta_classification_type": "U",
        "meta_norad_cat_id": 40230,
        "meta_element_set_no": 999,
        "meta_rev_at_epoch": 58808,
        "meta_bstar": 0.00090515824,
        "meta_mean_motion_dot": 3.43e-05,
        "meta_mean_motion_ddot": 0,
        "tle_line1": "1 40230U 93036BVK 25335.47631111  .00003430  00000+0  90516-3 0  9995",
        "tle_line2": "2 40230  74.0459 248.0026 0019173 306.9288 170.1054 14.49219846588084"
      },
      "geometry": {
        "type": "Point",
        "coordinates": [
          -119.04186769375129,
          -11.512128340940675
        ]
      }
    },
    {
      "type": "Feature",
      "properties": {
        "norad_id": 40233,
        "name": "COSMOS 2251 DEB",
        "group": "cosmos-2251-debris",
        "lat": -47.20334209783437,
        "lon": -40.9860493307458,
        "alt_km": 677.6348836619236,
        "timestamp": "2025-12-03T10:52:57.854881+00:00",
        "meta_object_name": "COSMOS 2251 DEB",
        "meta_object_id": "1993-036BVN",
        "meta_epoch": "2025-11-29T16:55:06.040992",
        "meta_mean_motion": 14.58149893,
        "meta_eccentricity": 0.00465907,
        "meta_inclination": 73.9381,
        "meta_ra_of_asc_node": 128.0565,
        "meta_arg_of_pericenter": 205.1304,
        "meta_mean_anomaly": 154.7594,
        "meta_ephemeris_type": 0,
        "meta_classification_type": "U",
        "meta_norad_cat_id": 40233,
        "meta_element_set_no": 999,
        "meta_rev_at_epoch": 58947,
        "meta_bstar": 0.0013059078,
        "meta_mean_motion_dot": 6.085e-05,
        "meta_mean_motion_ddot": 0,
        "tle_line1": "1 40233U 93036BVN 25333.70493103  .00006085  00000+0  13059-2 0  9994",
        "tle_line2": "2 40233  73.9381 128.0565 0046590 205.1304 154.7594 14.58149893589471"
      },
      "geometry": {
        "type": "Point",
        "coordinates": [
          -40.9860493307458,
          -47.20334209783437
        ]
      }
    },
    {
      "type": "Feature",
      "properties": {
        "norad_id": 40236,
        "name": "COSMOS 2251 DEB",
        "group": "cosmos-2251-debris",
        "lat": 64.05610562147044,
        "lon": -164.17759578797782,
        "alt_km": 805.5179960033165,
        "timestamp": "2025-12-03T10:52:57.854892+00:00",
        "meta_object_name": "COSMOS 2251 DEB",
        "meta_object_id": "1993-036BVR",
        "meta_epoch": "2025-11-24T19:56:56.097312",
        "meta_mean_motion": 13.24604738,
        "meta_eccentricity": 0.0536049,
        "meta_inclination": 73.5357,
        "meta_ra_of_asc_node": 171.9764,
        "meta_arg_of_pericenter": 53.9086,
        "meta_mean_anomaly": 311.0422,
        "meta_ephemeris_type": 0,
        "meta_classification_type": "U",
        "meta_norad_cat_id": 40236,
        "meta_element_set_no": 999,
        "meta_rev_at_epoch": 53387,
        "meta_bstar": 0.0012678,
        "meta_mean_motion_dot": 1.163e-05,
        "meta_mean_motion_ddot": 0,
        "tle_line1": "1 40236U 93036BVR 25328.83120483  .00001163  00000+0  12678-2 0  9991",
        "tle_line2": "2 40236  73.5357 171.9764 0536049  53.9086 311.0422 13.24604738533877"
      },
      "geometry": {
        "type": "Point",
        "coordinates": [
          -164.17759578797782,
          64.05610562147044
        ]
      }
    },
    {
      "type": "Feature",
      "properties": {
        "norad_id": 40238,
        "name": "COSMOS 2251 DEB",
        "group": "cosmos-2251-debris",
        "lat": 25.427452142184006,
        "lon": -109.98847419573075,
        "alt_km": 1226.2882560405105,
        "timestamp": "2025-12-03T10:52:57.854902+00:00",
        "meta_object_name": "COSMOS 2251 DEB",
        "meta_object_id": "1993-036BVT",
        "meta_epoch": "2025-12-02T23:17:45.545856",
        "meta_mean_motion": 13.25083413,
        "meta_eccentricity": 0.0549764,
        "meta_inclination": 73.9879,
        "meta_ra_of_asc_node": 78.5988,
        "meta_arg_of_pericenter": 52.4798,
        "meta_mean_anomaly": 312.4962,
        "meta_ephemeris_type": 0,
        "meta_classification_type": "U",
        "meta_norad_cat_id": 40238,
        "meta_element_set_no": 999,
        "meta_rev_at_epoch": 53907,
        "meta_bstar": 0.0016281,
        "meta_mean_motion_dot": 1.579e-05,
        "meta_mean_motion_ddot": 0,
        "tle_line1": "1 40238U 93036BVT 25336.97066604  .00001579  00000+0  16281-2 0  9996",
        "tle_line2": "2 40238  73.9879  78.5988 0549764  52.4798 312.4962 13.25083413539078"
      },
      "geometry": {
        "type": "Point",
        "coordinates": [
          -109.98847419573075,
          25.427452142184006
        ]
      }
    },
    {
      "type": "Feature",
      "properties": {
        "norad_id": 40239,
        "name": "COSMOS 2251 DEB",
        "group": "cosmos-2251-debris",
        "lat": 60.10384186043284,
        "lon": -36.511610600101996,
        "alt_km": 623.675746933678,
        "timestamp": "2025-12-03T10:52:57.854913+00:00",
        "meta_object_name": "COSMOS 2251 DEB",
        "meta_object_id": "1993-036BVU",
        "meta_epoch": "2025-12-03T04:06:23.351040",
        "meta_mean_motion": 14.61919535,
        "meta_eccentricity": 0.0084477,
        "meta_inclination": 74.0313,
        "meta_ra_of_asc_node": 294.1581,
        "meta_arg_of_pericenter": 48.0204,
        "meta_mean_anomaly": 330.7965,
        "meta_ephemeris_type": 0,
        "meta_classification_type": "U",
        "meta_norad_cat_id": 40239,
        "meta_element_set_no": 999,
        "meta_rev_at_epoch": 59471,
        "meta_bstar": 0.00063427,
        "meta_mean_motion_dot": 3.31e-05,
        "meta_mean_motion_ddot": 0,
        "tle_line1": "1 40239U 93036BVU 25337.17110360  .00003310  00000+0  63427-3 0  9999",
        "tle_line2": "2 40239  74.0313 294.1581 0084477  48.0204 330.7965 14.61919535594719"
      },
      "geometry": {
        "type": "Point",
        "coordinates": [
          -36.511610600101996,
          60.10384186043284
        ]
      }
    },
    {
      "type": "Feature",
      "properties": {
        "norad_id": 40792,
        "name": "COSMOS 2251 DEB",
        "group": "cosmos-2251-debris",
        "lat": 41.66634620002857,
        "lon": 80.13751477747724,
        "alt_km": 673.3808668293186,
        "timestamp": "2025-12-03T10:52:57.854924+00:00",
        "meta_object_name": "COSMOS 2251 DEB",
        "meta_object_id": "1993-036BVV",
        "meta_epoch": "2025-11-22T08:06:07.865856",
        "meta_mean_motion": 14.67201811,
        "meta_eccentricity": 0.00172349,
        "meta_inclination": 74.0441,
        "meta_ra_of_asc_node": 86.8266,
        "meta_arg_of_pericenter": 197.5934,
        "meta_mean_anomaly": 193.5273,
        "meta_ephemeris_type": 0,
        "meta_classification_type": "U",
        "meta_norad_cat_id": 40792,
        "meta_element_set_no": 999,
        "meta_rev_at_epoch": 62885,
        "meta_bstar": 0.00160322,
        "meta_mean_motion_dot": 9.026e-05,
        "meta_mean_motion_ddot": 0,
        "tle_line1": "1 40792U 93036BVV 25326.33759104  .00009026  00000+0  16032-2 0  9993",
        "tle_line2": "2 40792  74.0441  86.8266 0017234 197.5934 193.5273 14.67201811628855"
      },
      "geometry": {
        "type": "Point",
        "coordinates": [
          80.13751477747724,
          41.66634620002857
        ]
      }
    },
    {
      "type": "Feature",
      "properties": {
        "norad_id": 40793,
        "name": "COSMOS 2251 DEB",
        "group": "cosmos-2251-debris",
        "lat": -71.44980754201528,
        "lon": 60.30533054926177,
        "alt_km": 848.1808639924802,
        "timestamp": "2025-12-03T10:52:57.854935+00:00",
        "meta_object_name": "COSMOS 2251 DEB",
        "meta_object_id": "1993-036BVW",
        "meta_epoch": "2025-11-17T22:59:08.433600",
        "meta_mean_motion": 14.0559149,
        "meta_eccentricity": 0.02150611,
        "meta_inclination": 73.9793,
        "meta_ra_of_asc_node": 208.5839,
        "meta_arg_of_pericenter": 10.058,
        "meta_mean_anomaly": 350.4754,
        "meta_ephemeris_type": 0,
        "meta_classification_type": "U",
        "meta_norad_cat_id": 40793,
        "meta_element_set_no": 999,
        "meta_rev_at_epoch": 67897,
        "meta_bstar": 0.0015211732,
        "meta_mean_motion_dot": 3.024e-05,
        "meta_mean_motion_ddot": 0,
        "tle_line1": "1 40793U 93036BVW 25321.95773650  .00003024  00000+0  15212-2 0  9990",
        "tle_line2": "2 40793  73.9793 208.5839 0215061  10.0580 350.4754 14.05591490678970"
      },
      "geometry": {
        "type": "Point",
        "coordinates": [
          60.30533054926177,
          -71.44980754201528
        ]
      }
    }
  ]
}